TEVEL2-4                
1 63213U 25052D   26068.69417973  .00020990  00000+0  70363-3 0  9998
2 63213  97.4009 325.1237 0004733  95.3468 264.8313 15.30925813 54879
STARLINK-34163          
1 64008U 25101Q   26068.16881443  .00045628  00000+0  16562-2 0  9990
2 64008  43.0016   1.0719 0003820 246.0935 113.9516 15.27598639 46971
